OBJECT_NAME,OBJECT_ID,EPOCH,MEAN_MOTION,ECCENTRICITY,INCLINATION,RA_OF_ASC_NODE,ARG_OF_PERICENTER,MEAN_ANOMALY,EPHEMERIS_TYPE,CLASSIFICATION_TYPE,NORAD_CAT_ID,ELEMENT_SET_NO,REV_AT_EPOCH,BSTAR,MEAN_MOTION_DOT,MEAN_MOTION_DDOT
TANAGER-1,2024-149AR,2026-05-17T15:36:14.524704,15.44594842,.0005568,97.3148,231.8131,59.7083,300.4715,0,U,60507,999,9832,.13527E-3,.6203E-4,0
EAGLEEYE,2024-149AS,2026-05-17T05:17:42.449280,15.65631541,.00014499,97.3734,228.9816,30.8044,329.3300,0,U,60508,999,9808,.47613237E-3,.47943E-3,0
FLOCK 4BE-29,2024-149AT,2026-05-17T04:37:57.876672,15.43059720,.00036596,97.3813,222.6254,71.5796,288.5849,0,U,60509,999,9763,.27274346E-3,.11963E-3,0
TRANSPORTER-11 OBJECT AU,2024-149AU,2026-05-17T18:34:14.866752,15.39312903,.0004422,97.3733,221.2728,57.8126,302.3548,0,U,60510,999,9763,.2508E-3,.9704E-4,0
FLOCK 4BE-2,2024-149AV,2026-05-17T16:07:09.084288,15.49393582,.0003196,97.3826,224.1786,67.3593,292.7996,0,U,60511,999,9777,.56706E-3,.31098E-3,0
FLOCK 4BE-13,2024-149AW,2026-05-17T04:34:25.680864,15.40999737,.00043906,97.3725,221.3014,40.6856,319.4718,0,U,60512,999,9759,.24649981E-3,.10083E-3,0
FLOCK 4BE-27,2024-149AX,2026-05-17T16:03:52.367040,15.33874651,.0005048,97.3828,219.5191,66.8800,293.2975,0,U,60513,999,9746,.1891E-3,.6118E-4,0
FLOCK 4BE-9,2024-149AY,2026-05-17T16:28:46.605792,15.39823518,.0003681,97.3795,221.6856,72.5848,287.5800,0,U,60514,999,9762,.25802E-3,.10154E-3,0
FLOCK 4BE-6,2024-149BA,2026-05-17T11:55:47.977248,15.38686059,.00044422,97.3793,220.9085,67.1728,292.9986,0,U,60516,999,9755,.25428071E-3,.964E-4,0
FLOCK 4BE-14,2024-149BB,2026-05-17T19:58:57.503136,15.39994757,.0005177,97.3701,221.3585,61.9936,298.1833,0,U,60517,999,9765,.30304E-3,.12014E-3,0
FLOCK 4BE-1,2024-149BC,2026-05-17T16:25:55.659072,15.41512311,.0004748,97.3784,222.3794,62.7326,297.4404,0,U,60518,999,9767,.27744E-3,.11557E-3,0
FLOCK 4BE-28,2024-149BD,2026-05-17T16:18:00.362304,15.43772885,.0004811,97.3752,223.0051,56.8334,303.3375,0,U,60519,999,9773,.25811E-3,.11593E-3,0
IPERDRONE.0,2024-149BE,2026-05-17T11:24:46.145376,15.62343692,.00011945,97.3786,229.2792,15.8286,344.3009,0,U,60520,999,9811,.48384791E-3,.42793E-3,0
TRANSPORTER-11 OBJECT BF,2024-149BF,2026-05-17T16:48:35.710848,15.73525564,.0001228,97.3787,231.5708,282.0800,78.0326,0,U,60521,999,9827,.66414E-3,.93118E-3,0
CONNECTA IOT-2,2024-149BG,2026-05-17T15:29:16.552608,15.23690575,.0008082,97.3844,216.2598,77.5677,282.6465,0,U,60522,999,9724,.13034E-3,.3059E-4,0
PTD-R (TYVAK-0127),2024-149BH,2026-05-17T05:40:10.025760,15.89078625,.00017894,97.3772,235.2128,230.2580,129.8535,0,U,60523,999,9849,.47669512E-3,.13732E-2,0
CONNECTA IOT-4,2024-149BJ,2026-05-17T16:45:42.503040,15.40948346,.0005815,97.3803,221.7364,53.3365,306.8416,0,U,60524,999,9763,.30701E-3,.12564E-3,0
ORESAT0.5,2024-149BK,2026-05-17T16:00:28.793952,15.43867577,.0005785,97.3727,223.2293,43.7192,316.4513,0,U,60525,999,9776,.27567E-3,.12431E-3,0
DEIMOS,2024-149BL,2026-05-17T11:43:16.219488,15.43065017,.00059821,97.3785,223.2028,50.0570,310.1203,0,U,60526,999,9771,.28505061E-3,.12514E-3,0
CUAVA-2,2024-149BM,2026-05-17T15:42:31.641696,15.35363470,.0007554,97.3730,219.1396,53.0516,307.1418,0,U,60527,999,9748,.23586E-3,.8027E-4,0
ERNST,2024-149BN,2026-05-17T11:25:27.101568,15.38343187,.00069494,97.3811,220.9861,57.7250,302.4668,0,U,60528,999,9755,.25419569E-3,.9533E-4,0
TORO,2024-149BQ,2026-05-17T16:19:16.009824,14.96299150,.0001793,97.6790,212.9190,97.5707,262.5718,0,U,60530,999,9539,.13213E-3,.1436E-4,0
HYPSO-2,2024-149BR,2026-05-17T16:32:03.144192,14.98626343,.0002723,97.6824,214.3947,102.1156,258.0372,0,U,60531,999,9548,.17132E-3,.1997E-4,0
LEMU NGE,2024-149BS,2026-05-17T04:38:46.848192,14.94811941,.00025772,97.6847,212.7818,107.3739,252.7764,0,U,60532,999,9532,.89101209E-4,.913E-5,0
LEMUR-2-STELLA,2024-149BT,2026-05-17T18:15:04.876704,15.11086915,.0002131,97.6741,220.1001,117.2755,242.8691,0,U,60533,999,9590,.4453E-3,.7392E-4,0
SATELIOT_2,2024-149BU,2026-05-17T04:44:47.560416,14.96233845,.00014185,97.6831,212.7210,114.4259,245.7110,0,U,60534,999,9533,.82555783E-4,.874E-5,0
NIGHTJAR,2024-149BV,2026-05-17T16:25:57.476064,14.98821257,.000194,97.6840,214.8170,135.6238,224.5140,0,U,60535,999,13830,.17122E-3,.2006E-4,0
LEMUR-2-MARHISYAM,2024-149BW,2026-05-17T15:55:54.531840,15.10565588,.0001975,97.6877,220.4205,179.2720,180.8513,0,U,60536,999,9587,.39904E-3,.6521E-4,0
SATELIOT_4,2024-149BX,2026-05-17T16:23:35.291904,14.96547718,.0003483,97.6740,212.7454,120.6790,239.4775,0,U,60537,999,9541,.1516E-3,.1667E-4,0
PICO-02A021,2024-149BY,2026-05-17T16:14:33.531072,15.02939938,.0007231,97.6771,216.7805,114.2589,245.9392,0,U,60538,999,9515,.24607E-3,.3246E-4,0
