{"n":60507,"c":4,"l1":"1 60507U 2024-149 26137.65016810  0.00006203  00000-0  135270-4 0  9990","l2":"2 60507  97.3148 231.8131 0005568  59.7083 300.4715 15.44594842 98325","nm":"TANAGER-1"},{"n":60508,"c":9,"l1":"1 60508U 2024-149 26137.22063020  0.00047943  00000-0  476132-4 0  9990","l2":"2 60508  97.3734 228.9816 0001450  30.8044 329.3300 15.65631541 98081","nm":"EAGLEEYE"},{"n":60509,"c":4,"l1":"1 60509U 2024-149 26137.19303097  0.00011963  00000-0  272743-4 0  9993","l2":"2 60509  97.3813 222.6254 0003660  71.5796 288.5849 15.43059720 97631","nm":"FLOCK 4BE-29"},{"n":60510,"c":9,"l1":"1 60510U 2024-149 26137.77378317  0.00009704  00000-0  250800-4 0  9996","l2":"2 60510  97.3733 221.2728 0004422  57.8126 302.3548 15.39312903 97637","nm":"TRANSPORTER-11 OBJECT AU"},{"n":60511,"c":4,"l1":"1 60511U 2024-149 26137.67163292  0.00031098  00000-0  567060-4 0  9990","l2":"2 60511  97.3826 224.1786 0003196  67.3593 292.7996 15.49393582 97775","nm":"FLOCK 4BE-2"},{"n":60512,"c":4,"l1":"1 60512U 2024-149 26137.19057500  0.00010083  00000-0  246500-4 0  9996","l2":"2 60512  97.3725 221.3014 0004391  40.6856 319.4718 15.40999737 97595","nm":"FLOCK 4BE-13"},{"n":60513,"c":4,"l1":"1 60513U 2024-149 26137.66935610  0.00006118  00000-0  189100-4 0  9992","l2":"2 60513  97.3828 219.5191 0005048  66.8800 293.2975 15.33874651 97463","nm":"FLOCK 4BE-27"},{"n":60514,"c":4,"l1":"1 60514U 2024-149 26137.68665052  0.00010154  00000-0  258020-4 0  9998","l2":"2 60514  97.3795 221.6856 0003681  72.5848 287.5800 15.39823518 97629","nm":"FLOCK 4BE-9"},{"n":60516,"c":4,"l1":"1 60516U 2024-149 26137.49708307  0.00009640  00000-0  254281-4 0  9993","l2":"2 60516  97.3793 220.9085 0004442  67.1728 292.9986 15.38686059 97551","nm":"FLOCK 4BE-6"},{"n":60517,"c":4,"l1":"1 60517U 2024-149 26137.83260999  0.00012014  00000-0  303040-4 0  9999","l2":"2 60517  97.3701 221.3585 0005177  61.9936 298.1833 15.39994757 97658","nm":"FLOCK 4BE-14"},{"n":60518,"c":4,"l1":"1 60518U 2024-149 26137.68467198  0.00011557  00000-0  277440-4 0  9998","l2":"2 60518  97.3784 222.3794 0004748  62.7326 297.4404 15.41512311 97671","nm":"FLOCK 4BE-1"},{"n":60519,"c":4,"l1":"1 60519U 2024-149 26137.67917086  0.00011593  00000-0  258110-4 0  9997","l2":"2 60519  97.3752 223.0051 0004811  56.8334 303.3375 15.43772885 97732","nm":"FLOCK 4BE-28"},{"n":60520,"c":9,"l1":"1 60520U 2024-149 26137.47553409  0.00042793  00000-0  483848-4 0  9996","l2":"2 60520  97.3786 229.2792 0001195  15.8286 344.3009 15.62343692 98117","nm":"IPERDRONE.0"},{"n":60521,"c":9,"l1":"1 60521U 2024-149 26137.70041331  0.00093118  00000-0  664140-4 0  9992","l2":"2 60521  97.3787 231.5708 0001228 282.0800  78.0326 15.73525564 98271","nm":"TRANSPORTER-11 OBJECT BF"},{"n":60522,"c":9,"l1":"1 60522U 2024-149 26137.64533046  0.00003059  00000-0  130340-4 0  9990","l2":"2 60522  97.3844 216.2598 0008082  77.5677 282.6465 15.23690575 97240","nm":"CONNECTA IOT-2"},{"n":60523,"c":9,"l1":"1 60523U 2024-149 26137.23622714  0.00137320  00000-0  476695-4 0  9992","l2":"2 60523  97.3772 235.2128 0001789 230.2580 129.8535 15.89078625 98495","nm":"PTD-R (TYVAK-0127)"},{"n":60524,"c":9,"l1":"1 60524U 2024-149 26137.69840860  0.00012564  00000-0  307010-4 0  9993","l2":"2 60524  97.3803 221.7364 0005815  53.3365 306.8416 15.40948346 97635","nm":"CONNECTA IOT-4"},{"n":60525,"c":9,"l1":"1 60525U 2024-149 26137.66699992  0.00012431  00000-0  275670-4 0  9998","l2":"2 60525  97.3727 223.2293 0005785  43.7192 316.4513 15.43867577 97764","nm":"ORESAT0.5"},{"n":60526,"c":9,"l1":"1 60526U 2024-149 26137.48838216  0.00012514  00000-0  285051-4 0  9999","l2":"2 60526  97.3785 223.2028 0005982  50.0570 310.1203 15.43065017 97716","nm":"DEIMOS"},{"n":60527,"c":9,"l1":"1 60527U 2024-149 26137.65453288  0.00008027  00000-0  235860-4 0  9998","l2":"2 60527  97.3730 219.1396 0007554  53.0516 307.1418 15.35363470 97482","nm":"CUAVA-2"},{"n":60528,"c":9,"l1":"1 60528U 2024-149 26137.47600811  0.00009533  00000-0  254196-4 0  9991","l2":"2 60528  97.3811 220.9861 0006949  57.7250 302.4668 15.38343187 97552","nm":"ERNST"},{"n":60530,"c":9,"l1":"1 60530U 2024-149 26137.68004640  0.00001436  00000-0  132130-4 0  9992","l2":"2 60530  97.6790 212.9190 0001793  97.5707 262.5718 14.96299150 95396","nm":"TORO"},{"n":60531,"c":9,"l1":"1 60531U 2024-149 26137.68892528  0.00001997  00000-0  171320-4 0  9999","l2":"2 60531  97.6824 214.3947 0002723 102.1156 258.0372 14.98626343 95482","nm":"HYPSO-2"},{"n":60532,"c":9,"l1":"1 60532U 2024-149 26137.19359778  0.00000913  00000-0  891012-5 0  9996","l2":"2 60532  97.6847 212.7818 0002577 107.3739 252.7764 14.94811941 95323","nm":"LEMU NGE"},{"n":60533,"c":4,"l1":"1 60533U 2024-149 26137.76047310  0.00007392  00000-0  445300-4 0  9998","l2":"2 60533  97.6741 220.1001 0002131 117.2755 242.8691 15.11086915 95906","nm":"LEMUR-2-STELLA"},{"n":60534,"c":9,"l1":"1 60534U 2024-149 26137.19777269  0.00000874  00000-0  825558-5 0  9995","l2":"2 60534  97.6831 212.7210 0001419 114.4259 245.7110 14.96233845 95335","nm":"SATELIOT_2"},{"n":60535,"c":9,"l1":"1 60535U 2024-149 26137.68469301  0.00002006  00000-0  171220-4 0  9993","l2":"2 60535  97.6840 214.8170 0001940 135.6238 224.5140 14.98821257138300","nm":"NIGHTJAR"},{"n":60536,"c":4,"l1":"1 60536U 2024-149 26137.66382559  0.00006521  00000-0  399040-4 0  9999","l2":"2 60536  97.6877 220.4205 0001975 179.2720 180.8513 15.10565588 95870","nm":"LEMUR-2-MARHISYAM"},{"n":60537,"c":9,"l1":"1 60537U 2024-149 26137.68304735  0.00001667  00000-0  151600-4 0  9996","l2":"2 60537  97.6740 212.7454 0003483 120.6790 239.4775 14.96547718 95412","nm":"SATELIOT_4"},{"n":60538,"c":9,"l1":"1 60538U 2024-149 26137.67677698  0.00003246  00000-0  246070-4 0  9998","l2":"2 60538  97.6771 216.7805 0007231 114.2589 245.9392 15.02939938 95156","nm":"PICO-02A021"}